TRANSPORTER-12 OBJECT BT
1 62674U 25009BT  26068.71416991  .00013824  00000+0  51029-3 0  9998
2 62674  97.4094 151.5992 0003682 313.5044  46.5889 15.27872239121360
STARLINK-33608          
1 63425U 25065AC  26068.52188495  .00031623  00000+0  11526-2 0  9993
2 63425  42.9988 108.0021 0000484 240.5355 119.5448 15.27612250 52813
